[{"OBJECT_NAME":"IRIDIUM 109","OBJECT_ID":"2017-003C","EPOCH":"2026-03-09T16:03:22.246272","MEAN_MOTION":14.34217553,"ECCENTRICITY":0.00020925,"INCLINATION":86.3982,"RA_OF_ASC_NODE":130.128,"ARG_OF_PERICENTER":95.091,"MEAN_ANOMALY":265.0525,"EPHEMERIS_TYPE":0,"CLASSIFICATION_TYPE":"U","NORAD_CAT_ID":41919,"ELEMENT_SET_NO":999,"REV_AT_EPOCH":47893,"BSTAR":-6.19911e-6,"MEAN_MOTION_DOT":2.0e-8,"MEAN_MOTION_DDOT":0},{"OBJECT_NAME":"FENGYUN 1C DEB","OBJECT_ID":"1999-025TA","EPOCH":"2026-03-09T18:55:31.468224","MEAN_MOTION":14.15017045,"ECCENTRICITY":0.00890659,"INCLINATION":99.2663,"RA_OF_ASC_NODE":186.6529,"ARG_OF_PERICENTER":260.4786,"MEAN_ANOMALY":229.5094,"EPHEMERIS_TYPE":0,"CLASSIFICATION_TYPE":"U","NORAD_CAT_ID":30145,"ELEMENT_SET_NO":999,"REV_AT_EPOCH":97426,"BSTAR":0.0030248667,"MEAN_MOTION_DOT":6.041e-5,"MEAN_MOTION_DDOT":0}]
